{
  "type": "FeatureCollection",
  "features": [
    {
      "type": "Feature",
      "properties": {
        "norad_id": 29968,
        "name": "FENGYUN 1C DEB",
        "group": "fengyun-1c-debris",
        "lat": 56.68529740574506,
        "lon": 167.86243949154627,
        "alt_km": 896.4515806363715,
        "timestamp": "2025-12-10T09:57:44.972078+00:00",
        "meta_object_name": "FENGYUN 1C DEB",
        "meta_object_id": "1999-025KS",
        "meta_epoch": "2025-12-09T10:14:39.180768",
        "meta_mean_motion": 14.07253553,
        "meta_eccentricity": 0.00902408,
        "meta_inclination": 98.8043,
        "meta_ra_of_asc_node": 333.2606,
        "meta_arg_of_pericenter": 4.0864,
        "meta_mean_anomaly": 153.3587,
        "meta_ephemeris_type": 0,
        "meta_classification_type": "U",
        "meta_norad_cat_id": 29968,
        "meta_element_set_no": 999,
        "meta_rev_at_epoch": 97002,
        "meta_bstar": 0.00043681857,
        "meta_mean_motion_dot": 7.17e-06,
        "meta_mean_motion_ddot": 0,
        "tle_line1": "1 29968U 99025KS  25343.42684237  .00000717  00000+0  43682-3 0  9992",
        "tle_line2": "2 29968  98.8043 333.2606 0090240   4.0864 153.3587 14.07253553970023"
      },
      "geometry": {
        "type": "Point",
        "coordinates": [
          167.86243949154627,
          56.68529740574506
        ]
      }
    },
    {
      "type": "Feature",
      "properties": {
        "norad_id": 29969,
        "name": "FENGYUN 1C DEB",
        "group": "fengyun-1c-debris",
        "lat": -38.26606817638303,
        "lon": 75.68578541190413,
        "alt_km": 790.7736729107855,
        "timestamp": "2025-12-10T09:57:44.972088+00:00",
        "meta_object_name": "FENGYUN 1C DEB",
        "meta_object_id": "1999-025KT",
        "meta_epoch": "2025-12-09T04:15:37.447200",
        "meta_mean_motion": 14.33165036,
        "meta_eccentricity": 0.00419739,
        "meta_inclination": 98.7705,
        "meta_ra_of_asc_node": 67.4383,
        "meta_arg_of_pericenter": 61.4012,
        "meta_mean_anomaly": 358.7764,
        "meta_ephemeris_type": 0,
        "meta_classification_type": "U",
        "meta_norad_cat_id": 29969,
        "meta_element_set_no": 999,
        "meta_rev_at_epoch": 97611,
        "meta_bstar": 0.0020633579,
        "meta_mean_motion_dot": 5.68e-05,
        "meta_mean_motion_ddot": 0,
        "tle_line1": "1 29969U 99025KT  25343.17751675  .00005680  00000+0  20634-2 0  9991",
        "tle_line2": "2 29969  98.7705  67.4383 0041973  61.4012 358.7764 14.33165036976118"
      },
      "geometry": {
        "type": "Point",
        "coordinates": [
          75.68578541190413,
          -38.26606817638303
        ]
      }
    },
    {
      "type": "Feature",
      "properties": {
        "norad_id": 29970,
        "name": "FENGYUN 1C DEB",
        "group": "fengyun-1c-debris",
        "lat": 73.79078923217969,
        "lon": -119.58751933610775,
        "alt_km": 768.3940927623562,
        "timestamp": "2025-12-10T09:57:44.972098+00:00",
        "meta_object_name": "FENGYUN 1C DEB",
        "meta_object_id": "1999-025KU",
        "meta_epoch": "2025-12-09T18:44:01.366368",
        "meta_mean_motion": 14.43938763,
        "meta_eccentricity": 0.0090603,
        "meta_inclination": 98.8079,
        "meta_ra_of_asc_node": 271.9891,
        "meta_arg_of_pericenter": 196.3899,
        "meta_mean_anomaly": 184.3733,
        "meta_ephemeris_type": 0,
        "meta_classification_type": "U",
        "meta_norad_cat_id": 29970,
        "meta_element_set_no": 999,
        "meta_rev_at_epoch": 99078,
        "meta_bstar": 0.00077016,
        "meta_mean_motion_dot": 2.714e-05,
        "meta_mean_motion_ddot": 0,
        "tle_line1": "1 29970U 99025KU  25343.78057137  .00002714  00000+0  77016-3 0  9994",
        "tle_line2": "2 29970  98.8079 271.9891 0090603 196.3899 184.3733 14.43938763990780"
      },
      "geometry": {
        "type": "Point",
        "coordinates": [
          -119.58751933610775,
          73.79078923217969
        ]
      }
    },
    {
      "type": "Feature",
      "properties": {
        "norad_id": 29971,
        "name": "FENGYUN 1C DEB",
        "group": "fengyun-1c-debris",
        "lat": -81.176301615493,
        "lon": 104.1219579454686,
        "alt_km": 840.9962686566114,
        "timestamp": "2025-12-10T09:57:44.972108+00:00",
        "meta_object_name": "FENGYUN 1C DEB",
        "meta_object_id": "1999-025KV",
        "meta_epoch": "2025-12-09T14:46:27.311232",
        "meta_mean_motion": 14.18163844,
        "meta_eccentricity": 0.0023727,
        "meta_inclination": 98.6833,
        "meta_ra_of_asc_node": 23.4521,
        "meta_arg_of_pericenter": 176.6232,
        "meta_mean_anomaly": 335.1354,
        "meta_ephemeris_type": 0,
        "meta_classification_type": "U",
        "meta_norad_cat_id": 29971,
        "meta_element_set_no": 999,
        "meta_rev_at_epoch": 97295,
        "meta_bstar": 0.001296,
        "meta_mean_motion_dot": 2.627e-05,
        "meta_mean_motion_ddot": 0,
        "tle_line1": "1 29971U 99025KV  25343.61559388  .00002627  00000+0  12960-2 0  9991",
        "tle_line2": "2 29971  98.6833  23.4521 0023727 176.6232 335.1354 14.18163844972958"
      },
      "geometry": {
        "type": "Point",
        "coordinates": [
          104.1219579454686,
          -81.176301615493
        ]
      }
    },
    {
      "type": "Feature",
      "properties": {
        "norad_id": 29972,
        "name": "FENGYUN 1C DEB",
        "group": "fengyun-1c-debris",
        "lat": 31.475107351009683,
        "lon": -9.201202461475631,
        "alt_km": 626.3009217721983,
        "timestamp": "2025-12-10T09:57:44.972119+00:00",
        "meta_object_name": "FENGYUN 1C DEB",
        "meta_object_id": "1999-025KW",
        "meta_epoch": "2025-12-09T19:53:00.703104",
        "meta_mean_motion": 14.66281891,
        "meta_eccentricity": 0.0065097,
        "meta_inclination": 98.9217,
        "meta_ra_of_asc_node": 355.6803,
        "meta_arg_of_pericenter": 21.3305,
        "meta_mean_anomaly": 155.7482,
        "meta_ephemeris_type": 0,
        "meta_classification_type": "U",
        "meta_norad_cat_id": 29972,
        "meta_element_set_no": 999,
        "meta_rev_at_epoch": 99443,
        "meta_bstar": 0.0020129,
        "meta_mean_motion_dot": 0.00011411,
        "meta_mean_motion_ddot": 0,
        "tle_line1": "1 29972U 99025KW  25343.82848036  .00011411  00000+0  20129-2 0  9993",
        "tle_line2": "2 29972  98.9217 355.6803 0065097  21.3305 155.7482 14.66281891994435"
      },
      "geometry": {
        "type": "Point",
        "coordinates": [
          -9.201202461475631,
          31.475107351009683
        ]
      }
    },
    {
      "type": "Feature",
      "properties": {
        "norad_id": 29973,
        "name": "FENGYUN 1C DEB",
        "group": "fengyun-1c-debris",
        "lat": -38.54267757473954,
        "lon": -7.9158998103329585,
        "alt_km": 919.1678631993946,
        "timestamp": "2025-12-10T09:57:44.972129+00:00",
        "meta_object_name": "FENGYUN 1C DEB",
        "meta_object_id": "1999-025KX",
        "meta_epoch": "2025-12-09T06:54:34.318080",
        "meta_mean_motion": 14.0652646,
        "meta_eccentricity": 0.0059163,
        "meta_inclination": 98.8424,
        "meta_ra_of_asc_node": 343.8592,
        "meta_arg_of_pericenter": 158.6196,
        "meta_mean_anomaly": 217.7611,
        "meta_ephemeris_type": 0,
        "meta_classification_type": "U",
        "meta_norad_cat_id": 29973,
        "meta_element_set_no": 999,
        "meta_rev_at_epoch": 96670,
        "meta_bstar": 0.0011262,
        "meta_mean_motion_dot": 1.851e-05,
        "meta_mean_motion_ddot": 0,
        "tle_line1": "1 29973U 99025KX  25343.28789720  .00001851  00000+0  11262-2 0  9993",
        "tle_line2": "2 29973  98.8424 343.8592 0059163 158.6196 217.7611 14.06526460966708"
      },
      "geometry": {
        "type": "Point",
        "coordinates": [
          -7.9158998103329585,
          -38.54267757473954
        ]
      }
    },
    {
      "type": "Feature",
      "properties": {
        "norad_id": 29974,
        "name": "FENGYUN 1C DEB",
        "group": "fengyun-1c-debris",
        "lat": 67.79206460674615,
        "lon": -88.85040967608161,
        "alt_km": 804.7187909247759,
        "timestamp": "2025-12-10T09:57:44.972139+00:00",
        "meta_object_name": "FENGYUN 1C DEB",
        "meta_object_id": "1999-025KY",
        "meta_epoch": "2025-12-09T17:11:30.537888",
        "meta_mean_motion": 14.14827939,
        "meta_eccentricity": 0.0046946,
        "meta_inclination": 98.8935,
        "meta_ra_of_asc_node": 67.9008,
        "meta_arg_of_pericenter": 90.6888,
        "meta_mean_anomaly": 62.3414,
        "meta_ephemeris_type": 0,
        "meta_classification_type": "U",
        "meta_norad_cat_id": 29974,
        "meta_element_set_no": 999,
        "meta_rev_at_epoch": 96882,
        "meta_bstar": 0.0018558,
        "meta_mean_motion_dot": 3.576e-05,
        "meta_mean_motion_ddot": 0,
        "tle_line1": "1 29974U 99025KY  25343.71632567  .00003576  00000+0  18558-2 0  9999",
        "tle_line2": "2 29974  98.8935  67.9008 0046946  90.6888  62.3414 14.14827939968824"
      },
      "geometry": {
        "type": "Point",
        "coordinates": [
          -88.85040967608161,
          67.79206460674615
        ]
      }
    }
  ]
}